FName,LName,Email,Pass,Company,Plates,Phone,Lat,Long,UUID
Leslie,Temblett,ltemblett0@blogs.com,jesus,Youspan,KJI81B,+61422840985,-14.759589,121.806024,cwrjn04dammp
Kessia,Ingledow,kingledow1@oaic.gov.au,jordan,Trunyx,8D6KF0,+61493959795,-12.504096,116.816438,jz6mad7l6qb7
Waly,Cloonan,wcloonan2@jalbum.net,joshua,Fivespan,RJQMJW,+61418229415,-29.952016,146.706783,2a0jm9kjqvmw
Ashlin,Ostick,aostick3@over-blog.com,justin,Skiba,FO34VZ,+61406186414,-12.084292,132.776389,mychl5p4yu4t
Beryle,Standingford,bstandingford4@aol.com,killer,Snaptags,OBFWA7,+61428097198,-11.775608,151.493841,1obzutxwtoqt
Damita,Redish,dredish5@fc2.com,letmein,Trilia,EVOQPT,+61428433295,-18.337739,140.245410,87d6kxuw3gy9
Wanids,Bamlett,wbamlett6@twitter.com,liverpool,Brainlounge,ZK5IDS,+61462525229,-19.250237,143.960710,e0a2ea6s5yas
Ruby,MacCallester,rmaccallester7@usa.gov,lovely,Edgeclub,9J99IS,+61404022793,-22.905535,127.908322,9yrun0f4c4zt
Merrill,Wozencroft,mwozencroft8@clickbank.net,loveme,Trilia,MSLV0Z,+61492044027,-34.170061,134.934594,9ucbpku3x3rl
Winnifred,Gristock,wgristock9@dmoz.org,loveyou,Tambee,GXKRW9,+61496203274,-34.302391,116.370846,abrj2mhvyp0i
Loella,Center,lcentera@cdc.gov,master,Jabberstorm,NRURTX,+61435598379,-28.732545,131.847154,0s4s7loaykj1
Claresta,Siney,csineyb@java.com,matrix,Voonder,D1OL4W,+61488693021,-28.547386,115.892308,rwj3qyp3tcyv
Adore,Atyeo,aatyeoc@sfgate.com,merlin,Skaboo,AVFUYV,+61464192951,-29.748399,127.094796,lcob59djvu69
Amble,Kitchingman,akitchingmand@elegantthemes.com,monkey,Browseblab,85LBW4,+61492600268,-21.765105,146.477160,rprvo1f75xfb
Lissy,Jakeway,ljakewaye@google.com.hk,mustang,Aivee,VCUZGE,+61462186722,-34.740093,114.607419,mrxe9knjg6lz
Janie,Pell,jpellf@newsvine.com,nicole,Roomm,EIWK49,+61487054156,-31.485438,122.474782,5n3pfa5zwrcz
Samuele,Galloway,sgallowayg@liveinternet.ru,nothing,Trudeo,C3KWCD,+61463588445,-39.241098,113.712502,w8haz11f1cgd
Zulema,Blodget,zblodgeth@patch.com,number1,Zoombeat,AWATE7,+61482745543,-25.685167,121.616666,3oqar5k84m8j
Eleen,Brisseau,ebrisseaui@chronoengine.com,pass,Wikivu,DQSKYF,+61469172907,-11.412657,118.536400,elzom1pljaox
Shelly,Ruddiforth,sruddiforthj@bloglines.com,passport,Twinte,YOX9D8,+61467605494,-39.632114,146.829196,ko3r8ax59x3b
Harold,Farrimond,hfarrimondk@paginegialle.it,password,Dablist,LQ3P84,+61439278623,-22.156921,132.326383,5cuxu95dov70
Germana,Whitely,gwhitelyl@alibaba.com,password1,Flipopia,6F4IH8,+61413352939,-38.173446,126.881524,a2eh4uth6kxd
Clara,Kubik,ckubikm@cpanel.net,playboy,Wordtune,O9SGFZ,+61461867513,-23.283617,143.375734,pa1twzqcnewr
Ulberto,Skillman,uskillmann@gmpg.org,pokemon,Devbug,MKDMFM,+61473838817,-15.639431,147.993083,9cddfltefjuk
Kary,Gergher,kgerghero@walmart.com,pretty,Fivebridge,0M1H6W,+61441038956,-15.017162,111.770902,r9ybimgmakln
Rickard,Butterfill,rbutterfillp@berkeley.edu,princess,Viva,706Y0L,+61469442146,-26.031178,139.757514,ogh286ekakco
Lorine,Kubin,lkubinq@stanford.edu,purple,Myworks,2C08ST,+61478844662,-26.916227,144.249837,vn9q333ouglh
Annice,Bugdall,abugdallr@comsenz.com,pussy,Kimia,YEYYTZ,+61437442322,-18.985679,140.474341,vjr3wlf9swmj
Alisun,Dahill,adahills@google.fr,qazwsx,Zoonder,IYLCTN,+61415701942,-15.776717,127.724699,77rjve6qr7ir
Margarete,Ryves,mryvest@dailymotion.com,qwerty,Gigazoom,INFWTK,+61475931029,-23.862712,126.232938,woqrlvav58hb
Arnie,Maben,amabenu@amazonaws.com,roberto,Yacero,BKHONT,+61496087317,-23.784379,139.443423,x628au0g0mvm
Corbin,Angrock,cangrockv@lulu.com,sebastian,Thoughtstorm,0IFHDY,+61439967176,-34.281255,145.459414,ocozmpnsdks4
Athena,Edelheit,aedelheitw@auda.org.au,secret,Bluejam,HRN3P6,+61455882578,-25.891167,125.772122,v2g2890seuwh
Clay,Antonopoulos,cantonopoulosx@theatlantic.com,shadow,Kazu,C9OGJJ,+61499306613,-21.776780,121.382618,2v5uq6du52ip
Aylmer,Halloran,ahallorany@unblog.fr,shit,Snaptags,X60Y41,+61499695664,-29.715034,132.143519,ux93bmgqx82d
Aarika,Grandham,agrandhamz@psu.edu,soccer,Linklinks,PV1P2A,+61425205857,-38.572494,142.206576,301fk1iagzyp
Kipp,Bosworth,kbosworth10@homestead.com,starwars,Blogspan,ITVK5L,+61418647036,-15.035290,117.485151,vnuws5u0rn1k
Midge,McGloughlin,mmcgloughlin11@t-online.de,sunshine,Viva,7J9ZMK,+61423538047,-26.004133,133.789378,f657tp4rufam
Gordon,Korf,gkorf12@independent.co.uk,superman,Camido,2R0O2G,+61400653982,-31.418047,127.640258,mzrwqc1jz1c6
Carmen,Chasier,cchasier13@mysql.com,tequiero,Tambee,42ZJP3,+61419913962,-32.505710,128.558307,9ljvcmi29kmk
Leonardo,Taunton,ltaunton14@ebay.com,test,Jetpulse,97Q9YY,+61431182229,-31.813038,145.321743,l3tlym7svswk
Ruby,Mallya,rmallya15@cargocollective.com,testing,Bluejam,MAE5DR,+61454486385,-36.383169,138.249139,a4tfcbs1werq
Hedy,Easdon,heasdon16@twitter.com,trustno1,Voolith,H7YNS5,+61486898130,-15.701889,122.352200,haqiz3ddv56a
Georgy,Hubatsch,ghubatsch17@aboutads.info,tweety,Wikivu,9OFJA8,+61443037315,-15.613410,133.109140,q5ifu5mzwk9l
Phip,Antognelli,pantognelli18@instagram.com,welcome,Devshare,GFE6CX,+61459284549,-13.589151,144.708630,fbqledy6rp0v
Phylis,Filyukov,pfilyukov19@upenn.edu,westside,Geba,U7XMHO,+61476518816,-20.276880,137.726541,oe1bzlxipnnt
Basil,Boyall,bboyall1a@vistaprint.com,whatever,Skyndu,YY46C1,+61411303376,-36.350457,141.116642,b2ol7f334aoa
Starlene,Feacham,sfeacham1b@patch.com,windows,Wordware,MTH16S,+61428081219,-31.701679,120.976346,s3h415ji3ib3
Shaw,Cobbe,scobbe1c@parallels.com,writer,Topicshots,VQT9UJ,+61481399404,-12.773106,114.166403,u267zgelgjgv
Hewett,Lashley,hlashley1d@miibeian.gov.cn,zxcvbnm,Avavee,2CQTP8,+61494869222,-12.633294,125.984795,p6i0cmjywlot
